[{"OBJECT_NAME":"STARLINK-6058","OBJECT_ID":"2023-078AG","EPOCH":"2026-03-09T22:36:25.053696","MEAN_MOTION":14.98328333,"ECCENTRICITY":0.00022815,"INCLINATION":70.0008,"RA_OF_ASC_NODE":343.9928,"ARG_OF_PERICENTER":262.4965,"MEAN_ANOMALY":97.5935,"EPHEMERIS_TYPE":0,"CLASSIFICATION_TYPE":"U","NORAD_CAT_ID":56797,"ELEMENT_SET_NO":999,"REV_AT_EPOCH":15271,"BSTAR":-3.4565952e-5,"MEAN_MOTION_DOT":-5.05e-6,"MEAN_MOTION_DDOT":0},{"OBJECT_NAME":"COSMOS 2251 DEB","OBJECT_ID":"1993-036BDM","EPOCH":"2026-03-07T08:26:45.291840","MEAN_MOTION":15.06951358,"ECCENTRICITY":0.00416459,"INCLINATION":73.8833,"RA_OF_ASC_NODE":199.9445,"ARG_OF_PERICENTER":129.9164,"MEAN_ANOMALY":230.5698,"EPHEMERIS_TYPE":0,"CLASSIFICATION_TYPE":"U","NORAD_CAT_ID":36551,"ELEMENT_SET_NO":999,"REV_AT_EPOCH":68204,"BSTAR":0.0035281021,"MEAN_MOTION_DOT":0.00054188,"MEAN_MOTION_DDOT":0}]
